{
  "type": "FeatureCollection",
  "features": [
    {
      "type": "Feature",
      "properties": {
        "reference": "Caltrain official GTFS",
        "trip_id": "604",
        "shape_id": "p_1438275",
        "direction": "San Francisco to San Jose",
        "length_km": 75.423
      },
      "geometry": {
        "type": "LineString",
        "coordinates": [
          [
            -122.39472497267992,
            37.77620335927158
          ],
          [
            -122.39646077156,
            37.7748956564251
          ],
          [
            -122.399218082427,
            37.7729960394508
          ],
          [
            -122.399829626083,
            37.7723515154598
          ],
          [
            -122.400087118148,
            37.771681543777
          ],
          [
            -122.400076389312,
            37.7710794121482
          ],
          [
            -122.399969100952,
            37.7707232192991
          ],
          [
            -122.397705316543,
            37.7689337483087
          ],
          [
            -122.395505905151,
            37.7675513311181
          ],
          [
            -122.394454479217,
            37.7667032096217
          ],
          [
            -122.3934674263,
            37.7656006371352
          ],
          [
            -122.393049001693,
            37.7649306042867
          ],
          [
            -122.392716407775,
            37.7640909342991
          ],
          [
            -122.392652034759,
            37.7636583733125
          ],
          [
            -122.392534017562,
            37.7628356522975
          ],
          [
            -122.392480373382,
            37.7620298857321
          ],
          [
            -122.392362356185,
            37.7611732190198
          ],
          [
            -122.392308712005,
            37.7602910963936
          ],
          [
            -122.392265796661,
            37.7596888720199
          ],
          [
            -122.392255067825,
            37.7587812851807
          ],
          [
            -122.392212152481,
            37.7581196728041
          ],
          [
            -122.392225832948,
            37.7575936541628
          ],
          [
            -122.39221185509669,
            37.75758309316703
          ],
          [
            -122.39255771742131,
            37.75411144639605
          ],
          [
            -122.39305818604592,
            37.75049504631497
          ],
          [
            -122.39352419682712,
            37.7473234598138
          ],
          [
            -122.39393286593366,
            37.744262500294965
          ],
          [
            -122.39441065560392,
            37.74070744725961
          ],
          [
            -122.39477620095187,
            37.737990021383155
          ],
          [
            -122.39520864968586,
            37.73509471786832
          ],
          [
            -122.3959448193154,
            37.7297652585431
          ],
          [
            -122.39638039866571,
            37.72657226848021
          ],
          [
            -122.39669696744465,
            37.72449257051929
          ],
          [
            -122.39727357327047,
            37.722774136814664
          ],
          [
            -122.39836495714317,
            37.71977689290625
          ],
          [
            -122.39876825507122,
            37.718670715250596
          ],
          [
            -122.39961790060256,
            37.7162501602278
          ],
          [
            -122.40096125181913,
            37.71266066238799
          ],
          [
            -122.40166285668494,
            37.710208710943945
          ],
          [
            -122.40173507331602,
            37.70950884518993
          ],
          [
            -122.40175934684045,
            37.709512856900005
          ],
          [
            -122.401793003082,
            37.7084394433704
          ],
          [
            -122.401782274246,
            37.7075991324401
          ],
          [
            -122.40177154541,
            37.7066824187405
          ],
          [
            -122.401782274246,
            37.7055874402944
          ],
          [
            -122.401793003082,
            37.7027098616827
          ],
          [
            -122.401803731918,
            37.7013856286826
          ],
          [
            -122.401803731918,
            37.6988389602692
          ],
          [
            -122.401793003082,
            37.6963516296716
          ],
          [
            -122.401739358901,
            37.6944075486836
          ],
          [
            -122.401632070541,
            37.6936095268841
          ],
          [
            -122.401556968688,
            37.6932699405347
          ],
          [
            -122.401256561279,
            37.6920389269809
          ],
          [
            -122.400966882705,
            37.6911729603747
          ],
          [
            -122.400323152542,
            37.6897806007087
          ],
          [
            -122.399325370788,
            37.6880910560075
          ],
          [
            -122.398917675018,
            37.6875646573319
          ],
          [
            -122.398241758346,
            37.6867326001923
          ],
          [
            -122.397608757019,
            37.6859769483753
          ],
          [
            -122.396332025527,
            37.6844486402709
          ],
          [
            -122.395076751708,
            37.6829712458364
          ],
          [
            -122.391933202743,
            37.679192718165
          ],
          [
            -122.39109635353,
            37.6782331962278
          ],
          [
            -122.390613555908,
            37.6775114237604
          ],
          [
            -122.390216588974,
            37.6768745598697
          ],
          [
            -122.389969825744,
            37.6762716570159
          ],
          [
            -122.389819622039,
            37.6756602575696
          ],
          [
            -122.389680147171,
            37.675167737685
          ],
          [
            -122.389669418334,
            37.6738345209055
          ],
          [
            -122.389712333679,
            37.6731296896164
          ],
          [
            -122.389948368072,
            37.6723229467916
          ],
          [
            -122.39033460617,
            37.6714312734653
          ],
          [
            -122.391031980514,
            37.6704122051156
          ],
          [
            -122.392963171005,
            37.6684079965378
          ],
          [
            -122.394003868103,
            37.6673379308124
          ],
          [
            -122.395892143249,
            37.6653506249624
          ],
          [
            -122.396621704101,
            37.6646202342273
          ],
          [
            -122.397737503051,
            37.663380252103
          ],
          [
            -122.399668693542,
            37.6614777735062
          ],
          [
            -122.400687932968,
            37.6604245947455
          ],
          [
            -122.403992414474,
            37.6569931667572
          ],
          [
            -122.40495430629615,
            37.65590198765093
          ],
          [
            -122.404969949705,
            37.6559156845309
          ],
          [
            -122.405129671096,
            37.6557615512043
          ],
          [
            -122.405301332473,
            37.6555916715938
          ],
          [
            -122.405987977981,
            37.6549291373988
          ],
          [
            -122.40688920021,
            37.6539693017332
          ],
          [
            -122.407200336456,
            37.6536295339225
          ],
          [
            -122.40759730339,
            37.6531623506443
          ],
          [
            -122.409346103668,
            37.6509962806776
          ],
          [
            -122.410140037536,
            37.6500788672926
          ],
          [
            -122.411159276962,
            37.6486347677087
          ],
          [
            -122.411438226699,
            37.6482015323579
          ],
          [
            -122.412114143371,
            37.6469103061266
          ],
          [
            -122.412446737289,
            37.6461032783327
          ],
          [
            -122.412993907928,
            37.6442598240606
          ],
          [
            -122.413133382797,
            37.6422803959581
          ],
          [
            -122.413144111633,
            37.6407002137771
          ],
          [
            -122.413122653961,
            37.6398591353619
          ],
          [
            -122.413111925125,
            37.6392729235626
          ],
          [
            -122.413090467453,
            37.6386867071379
          ],
          [
            -122.413101196289,
            37.6380410141286
          ],
          [
            -122.413101196289,
            37.6372253938854
          ],
          [
            -122.413036823272,
            37.6358999918943
          ],
          [
            -122.412983179092,
            37.6343961417737
          ],
          [
            -122.412983179092,
            37.6340902702279
          ],
          [
            -122.412940263748,
            37.6334360407506
          ],
          [
            -122.412747144699,
            37.6325693902369
          ],
          [
            -122.412650585174,
            37.6322805044862
          ],
          [
            -122.41208267643813,
            37.63123040021833
          ],
          [
            -122.41165275444483,
            37.63048196084263
          ],
          [
            -122.41166597206349,
            37.63050528305533
          ],
          [
            -122.411352396011,
            37.6299608811317
          ],
          [
            -122.410204410552,
            37.6279640777675
          ],
          [
            -122.409431934356,
            37.626655505189
          ],
          [
            -122.40860581398,
            37.6253384121229
          ],
          [
            -122.407929897308,
            37.6243611989605
          ],
          [
            -122.407811880111,
            37.6242082426941
          ],
          [
            -122.406899929046,
            37.6229845812322
          ],
          [
            -122.406331300735,
            37.6219648479605
          ],
          [
            -122.405934333801,
            37.6211575492003
          ],
          [
            -122.404872179031,
            37.6196449026587
          ],
          [
            -122.4043571949,
            37.618965051492
          ],
          [
            -122.403327226638,
            37.6175968321743
          ],
          [
            -122.402844429016,
            37.6169254606922
          ],
          [
            -122.40223288536,
            37.616143602718
          ],
          [
            -122.401621341705,
            37.6153362407474
          ],
          [
            -122.400730848312,
            37.6141889218146
          ],
          [
            -122.399775981903,
            37.612880106751
          ],
          [
            -122.399046421051,
            37.6119962186121
          ],
          [
            -122.398606538772,
            37.6115287735225
          ],
          [
            -122.397254705429,
            37.6101859149213
          ],
          [
            -122.396525144577,
            37.6094464824288
          ],
          [
            -122.395516633987,
            37.6084945585113
          ],
          [
            -122.394679784774,
            37.6076871134956
          ],
          [
            -122.393403053283,
            37.6064291816904
          ],
          [
            -122.39145040512,
            37.6045167446095
          ],
          [
            -122.389605045318,
            37.6026807587545
          ],
          [
            -122.388178110122,
            37.6012867392315
          ],
          [
            -122.386794090271,
            37.5998926935874
          ],
          [
            -122.386740626965,
            37.5998314425854
          ],
          [
            -122.3867414747031,
            37.59983815506196
          ],
          [
            -122.38432072259005,
            37.59749321135955
          ],
          [
            -122.38347256856676,
            37.59674992796036
          ],
          [
            -122.38196902279819,
            37.59578263023354
          ],
          [
            -122.38052973112758,
            37.595120787693475
          ],
          [
            -122.3737303447272,
            37.592270542914264
          ],
          [
            -122.36787707058312,
            37.58979980665022
          ],
          [
            -122.36268430481007,
            37.58761601865473
          ],
          [
            -122.36267419081533,
            37.587606709165016
          ],
          [
            -122.36256653624199,
            37.58755852041996
          ],
          [
            -122.359414100646,
            37.586248368231
          ],
          [
            -122.356206178665,
            37.5849390615599
          ],
          [
            -122.353094816207,
            37.583570216326
          ],
          [
            -122.350670099258,
            37.5826009566537
          ],
          [
            -122.348749637603,
            37.5817677233397
          ],
          [
            -122.345316410064,
            37.5803307990844
          ],
          [
            -122.3450552877963,
            37.580219265673655
          ],
          [
            -122.34505616728303,
            37.58021350339013
          ],
          [
            -122.34486579895,
            37.5801352392015
          ],
          [
            -122.342784404754,
            37.579293475581
          ],
          [
            -122.340735197067,
            37.5784261940182
          ],
          [
            -122.338643074035,
            37.5775248907096
          ],
          [
            -122.334641218185,
            37.5758327918241
          ],
          [
            -122.333450317382,
            37.5753821258377
          ],
          [
            -122.332248687744,
            37.5747869024306
          ],
          [
            -122.330939769744,
            37.5741151445851
          ],
          [
            -122.330617904663,
            37.5738685484124
          ],
          [
            -122.329663038253,
            37.573281816305
          ],
          [
            -122.328729629516,
            37.5725590240209
          ],
          [
            -122.327238321304,
            37.5713090019849
          ],
          [
            -122.325768470764,
            37.5699824250408
          ],
          [
            -122.32404662187805,
            37.568337573619196
          ],
          [
            -122.3240100043899,
            37.56834275421063
          ],
          [
            -122.323783636093,
            37.5681370832035
          ],
          [
            -122.322399616241,
            37.5668954910783
          ],
          [
            -122.320725917816,
            37.5653307153623
          ],
          [
            -122.31864452362,
            37.5634087176005
          ],
          [
            -122.317346334457,
            37.5622180746446
          ],
          [
            -122.31529712677,
            37.5603300160901
          ],
          [
            -122.313762903213,
            37.5588841731375
          ],
          [
            -122.311788797378,
            37.5570300511171
          ],
          [
            -122.311145067214,
            37.5561880263425
          ],
          [
            -122.310351133346,
            37.5547335975031
          ],
          [
            -122.30953638001026,
            37.55301147265022
          ],
          [
            -122.309608,
            37.552994
          ],
          [
            -122.30936736676618,
            37.55264510163478
          ],
          [
            -122.30891198506357,
            37.551744112879234
          ],
          [
            -122.30848785100665,
            37.551009750971886
          ],
          [
            -122.30728335163062,
            37.54934143568158
          ],
          [
            -122.30605333295804,
            37.54787752006169
          ],
          [
            -122.30448514540853,
            37.546023466556235
          ],
          [
            -122.30366612140172,
            37.54504944278544
          ],
          [
            -122.30297753480288,
            37.544243371172115
          ],
          [
            -122.30235617147235,
            37.54352296034425
          ],
          [
            -122.3017779757218,
            37.54280721176325
          ],
          [
            -122.301666,
            37.542536
          ],
          [
            -122.30141290244967,
            37.542356550313116
          ],
          [
            -122.30040879943249,
            37.541217427883026
          ],
          [
            -122.29965056466801,
            37.54031325009922
          ],
          [
            -122.2989602026233,
            37.53955649177625
          ],
          [
            -122.29808002833806,
            37.538622603561606
          ],
          [
            -122.29716103700778,
            37.53765102336996
          ],
          [
            -122.29642883148756,
            37.53683838666318
          ],
          [
            -122.29547284052069,
            37.53579137645529
          ],
          [
            -122.29449636657925,
            37.53487559210831
          ],
          [
            -122.29346009982793,
            37.5340171213695
          ],
          [
            -122.29188679666406,
            37.53281571483181
          ],
          [
            -122.28956753152106,
            37.53117055272374
          ],
          [
            -122.28703802095521,
            37.52948111062358
          ],
          [
            -122.28417404836492,
            37.527542883607794
          ],
          [
            -122.27994241135941,
            37.52431052422925
          ],
          [
            -122.275816,
            37.520844
          ],
          [
            -122.2757750757822,
            37.520898952147945
          ],
          [
            -122.27164176253962,
            37.51743866486488
          ],
          [
            -122.26963804320556,
            37.51597733160855
          ],
          [
            -122.2677020418556,
            37.51454311988803
          ],
          [
            -122.26017789208461,
            37.50800935991403
          ],
          [
            -122.26020669969293,
            37.50800693354151
          ],
          [
            -122.259850502014,
            37.5077173027208
          ],
          [
            -122.258584499359,
            37.5065938583537
          ],
          [
            -122.257511615753,
            37.5056150862224
          ],
          [
            -122.256170511245,
            37.5044575652273
          ],
          [
            -122.254786491394,
            37.5032659807505
          ],
          [
            -122.252125740051,
            37.5009848945606
          ],
          [
            -122.249861955642,
            37.4989931429134
          ],
          [
            -122.247941493988,
            37.4972992610347
          ],
          [
            -122.245967388153,
            37.4955627794266
          ],
          [
            -122.243574857711,
            37.4935708831553
          ],
          [
            -122.241579294204,
            37.4922258975075
          ],
          [
            -122.23935842514,
            37.4908212980343
          ],
          [
            -122.237159013748,
            37.489433698074
          ],
          [
            -122.234916687011,
            37.4880120198476
          ],
          [
            -122.232599258422,
            37.4865307215363
          ],
          [
            -122.23198372793651,
            37.48615047537397
          ],
          [
            -122.23195650964603,
            37.48613687352389
          ],
          [
            -122.231193780899,
            37.4856623605944
          ],
          [
            -122.228844165802,
            37.4841639885689
          ],
          [
            -122.226290702819,
            37.4825804491086
          ],
          [
            -122.22427368164,
            37.481337432257
          ],
          [
            -122.222138643264,
            37.4799666842198
          ],
          [
            -122.220475673675,
            37.4789194498315
          ],
          [
            -122.218726873397,
            37.4777700293405
          ],
          [
            -122.217729091644,
            37.477148483488
          ],
          [
            -122.215025424957,
            37.4754455916557
          ],
          [
            -122.213523387908,
            37.4745174992709
          ],
          [
            -122.211238145828,
            37.473061477903
          ],
          [
            -122.209306955337,
            37.4718693925076
          ],
          [
            -122.206045389175,
            37.4698002277175
          ],
          [
            -122.204006910324,
            37.4685229369105
          ],
          [
            -122.202011346817,
            37.4672456242786
          ],
          [
            -122.199994325637,
            37.4660023523576
          ],
          [
            -122.19794511795,
            37.4647249966589
          ],
          [
            -122.196958065032,
            37.4640692789232
          ],
          [
            -122.193868160247,
            37.4621191233617
          ],
          [
            -122.192044258117,
            37.4609864769134
          ],
          [
            -122.18934059143,
            37.4592321184726
          ],
          [
            -122.18634724617,
            37.4573499697215
          ],
          [
            -122.183450460433,
            37.4555273913982
          ],
          [
            -122.18234235896423,
            37.45483407404874
          ],
          [
            -122.18231484087111,
            37.454814576766225
          ],
          [
            -122.180639505386,
            37.4537558708358
          ],
          [
            -122.177989482879,
            37.4520694805488
          ],
          [
            -122.175843715667,
            37.4507067131466
          ],
          [
            -122.173247337341,
            37.449045806807
          ],
          [
            -122.170983552932,
            37.4476233602683
          ],
          [
            -122.169524431228,
            37.4467460294569
          ],
          [
            -122.167990207672,
            37.4456472219869
          ],
          [
            -122.165468931198,
            37.4439606488941
          ],
          [
            -122.16466477315744,
            37.44344712685951
          ],
          [
            -122.16465433345326,
            37.44342737493663
          ],
          [
            -122.163033485412,
            37.44237625772
          ],
          [
            -122.161767482757,
            37.4415925679638
          ],
          [
            -122.160437107086,
            37.4409025734492
          ],
          [
            -122.159053087234,
            37.4401444239921
          ],
          [
            -122.157829999923,
            37.4394118228374
          ],
          [
            -122.156134843826,
            37.438338464008
          ],
          [
            -122.154139280319,
            37.4370691547315
          ],
          [
            -122.151693105697,
            37.4355101749544
          ],
          [
            -122.149204015731,
            37.433925604855
          ],
          [
            -122.147948741912,
            37.4331333072251
          ],
          [
            -122.14544892311,
            37.4315401672502
          ],
          [
            -122.143056392669,
            37.4300492301427
          ],
          [
            -122.14240193367,
            37.4296402822037
          ],
          [
            -122.141954690893,
            37.429350163639945
          ],
          [
            -122.14196645776535,
            37.429346422549045
          ],
          [
            -122.139987945556,
            37.4281152274815
          ],
          [
            -122.137981653213,
            37.4268542649187
          ],
          [
            -122.135481834411,
            37.4253035926497
          ],
          [
            -122.132960557937,
            37.4237017655943
          ],
          [
            -122.131640911102,
            37.4228497159646
          ],
          [
            -122.12878704071,
            37.4210689009304
          ],
          [
            -122.127338647842,
            37.4201571754066
          ],
          [
            -122.125267982482,
            37.4188108688217
          ],
          [
            -122.123293876647,
            37.4175667918539
          ],
          [
            -122.120976448059,
            37.416084097791
          ],
          [
            -122.118626832962,
            37.4145843314067
          ],
          [
            -122.116609811782,
            37.4133231409751
          ],
          [
            -122.115150690078,
            37.4124113211531
          ],
          [
            -122.111309766769,
            37.4099655440136
          ],
          [
            -122.108348608016,
            37.4081418115286
          ],
          [
            -122.1070890778114,
            37.407314271834636
          ],
          [
            -122.10709195170125,
            37.407315213836355
          ],
          [
            -122.107007503509,
            37.4072640179172
          ],
          [
            -122.105687856674,
            37.4064799605587
          ],
          [
            -122.104400396347,
            37.405764074935
          ],
          [
            -122.101997137069,
            37.4047754597332
          ],
          [
            -122.097491025924,
            37.4029771693283
          ],
          [
            -122.091772556304,
            37.4007185918035
          ],
          [
            -122.089562416076,
            37.3998321880613
          ],
          [
            -122.085689306259,
            37.3982894796231
          ],
          [
            -122.082191705703,
            37.3969172095185
          ],
          [
            -122.078039646148,
            37.3952721569629
          ],
          [
            -122.076097726821,
            37.3945050216652
          ],
          [
            -122.07596010355377,
            37.39444635822172
          ],
          [
            -122.07596528516679,
            37.39444267831422
          ],
          [
            -122.07117319107,
            37.3925445291225
          ],
          [
            -122.068480253219,
            37.3914790225387
          ],
          [
            -122.065669298172,
            37.3903367826608
          ],
          [
            -122.062976360321,
            37.3892712446965
          ],
          [
            -122.059317827224,
            37.3880778241965
          ],
          [
            -122.05249428749,
            37.3858187976663
          ],
          [
            -122.047290802001,
            37.3840626771921
          ],
          [
            -122.044329643249,
            37.3831419762376
          ],
          [
            -122.040982246398,
            37.3820251849072
          ],
          [
            -122.037312984466,
            37.3808231237449
          ],
          [
            -122.033514976501,
            37.3795443141219
          ],
          [
            -122.03139955935082,
            37.37884764772371
          ],
          [
            -122.03142135707854,
            37.37881735851835
          ],
          [
            -122.029792070388,
            37.3782740083074
          ],
          [
            -122.025736570358,
            37.3770036809765
          ],
          [
            -122.023966312408,
            37.3764324529491
          ],
          [
            -122.020522356033,
            37.3752644059771
          ],
          [
            -122.017174959182,
            37.3742327581228
          ],
          [
            -122.013902664184,
            37.3735080383355
          ],
          [
            -122.010437250137,
            37.3728515214248
          ],
          [
            -122.007089853286,
            37.3721353146056
          ],
          [
            -122.002701759338,
            37.3712656257035
          ],
          [
            -122.000094652175,
            37.3708222510104
          ],
          [
            -121.99731506264666,
            37.370595881327716
          ],
          [
            -121.99711102388915,
            37.37059719104944
          ],
          [
            -121.99714442428507,
            37.37056549623921
          ],
          [
            -121.996994018554,
            37.3705579302351
          ],
          [
            -121.995105743408,
            37.3704982447699
          ],
          [
            -121.990438699722,
            37.3705408772499
          ],
          [
            -121.986672878265,
            37.3705579302351
          ],
          [
            -121.982392072677,
            37.3706005626812
          ],
          [
            -121.978830099105,
            37.3705323507558
          ],
          [
            -121.976770162582,
            37.3703191880892
          ],
          [
            -121.974538564682,
            37.3698587546622
          ],
          [
            -121.972768306732,
            37.3692874722227
          ],
          [
            -121.969023942947,
            37.3676929743397
          ],
          [
            -121.965794563293,
            37.3662604553655
          ],
          [
            -121.962404251098,
            37.3647596918667
          ],
          [
            -121.959507465362,
            37.3635744085705
          ],
          [
            -121.955913305282,
            37.3619542068716
          ],
          [
            -121.953617334365,
            37.3609394311495
          ],
          [
            -121.949282884597,
            37.359046283461
          ],
          [
            -121.947308778762,
            37.3582020265274
          ],
          [
            -121.942180395126,
            37.3559762127255
          ],
          [
            -121.938232183456,
            37.3542790919525
          ],
          [
            -121.93623476725773,
            37.353298753523006
          ],
          [
            -121.93610090662858,
            37.3532357915316
          ],
          [
            -121.936135,
            37.353189
          ],
          [
            -121.93422656580319,
            37.35230333621978
          ],
          [
            -121.93212022372288,
            37.35120172692456
          ],
          [
            -121.92965214461955,
            37.34992042842046
          ],
          [
            -121.92672952300734,
            37.34845208265966
          ],
          [
            -121.92514367131722,
            37.34765058711919
          ],
          [
            -121.92279256482965,
            37.346457468672725
          ],
          [
            -121.92008017837371,
            37.3450887533111
          ],
          [
            -121.91778493280722,
            37.34393374533934
          ],
          [
            -121.91550804542402,
            37.342816547304565
          ],
          [
            -121.91302278450969,
            37.3415195753216
          ],
          [
            -121.91204288553281,
            37.34122056777548
          ],
          [
            -121.91120482593541,
            37.34099711734518
          ],
          [
            -121.9104022535935,
            37.340603463274036
          ],
          [
            -121.91006115672818,
            37.340401811161726
          ],
          [
            -121.90960344554513,
            37.34007963022093
          ],
          [
            -121.90870950394226,
            37.339172784257414
          ],
          [
            -121.90836362900791,
            37.338710298097055
          ],
          [
            -121.90787446904017,
            37.337669617863014
          ],
          [
            -121.90750690331612,
            37.33708045498521
          ],
          [
            -121.90686231008583,
            37.33642974494738
          ],
          [
            -121.90478583289458,
            37.33468360254851
          ],
          [
            -121.90389441680664,
            37.3338107724133
          ],
          [
            -121.90356125626064,
            37.33326369186614
          ],
          [
            -121.90345261695207,
            37.33279723056822
          ],
          [
            -121.90326666496085,
            37.33135342009629
          ],
          [
            -121.903173,
            37.329231
          ]
        ]
      }
    }
  ]
}