{
  "type": "FeatureCollection",
  "features": [
    {
      "type": "Feature",
      "properties": {
        "scenario_id": "airport_to_airport",
        "reference": "Caltrain official GTFS",
        "derived_from": "sf_sj_full",
        "endpoint_basis": "Caltrain station proxies for airport access",
        "start": "Millbrae Caltrain",
        "end": "Santa Clara Caltrain",
        "length_km": 49.542589
      },
      "geometry": {
        "type": "LineString",
        "coordinates": [
          [
            -122.38674147470311,
            37.599838155061946
          ],
          [
            -122.38432072259005,
            37.59749321135954
          ],
          [
            -122.38347256856676,
            37.59674992796036
          ],
          [
            -122.38196902279819,
            37.59578263023355
          ],
          [
            -122.3805297311276,
            37.59512078769346
          ],
          [
            -122.3737303447272,
            37.59227054291426
          ],
          [
            -122.36787707058312,
            37.58979980665022
          ],
          [
            -122.36268430481009,
            37.58761601865473
          ],
          [
            -122.36267419081533,
            37.58760670916501
          ],
          [
            -122.362566536242,
            37.58755852041995
          ],
          [
            -122.359414100646,
            37.586248368231004
          ],
          [
            -122.35620617866499,
            37.5849390615599
          ],
          [
            -122.35309481620702,
            37.583570216326
          ],
          [
            -122.35067009925798,
            37.58260095665371
          ],
          [
            -122.348749637603,
            37.5817677233397
          ],
          [
            -122.345316410064,
            37.5803307990844
          ],
          [
            -122.3450552877963,
            37.580219265673655
          ],
          [
            -122.34505616728305,
            37.58021350339013
          ],
          [
            -122.34486579895,
            37.58013523920151
          ],
          [
            -122.342784404754,
            37.579293475581
          ],
          [
            -122.34073519706702,
            37.578426194018206
          ],
          [
            -122.33864307403502,
            37.57752489070959
          ],
          [
            -122.33464121818501,
            37.575832791824105
          ],
          [
            -122.333450317382,
            37.5753821258377
          ],
          [
            -122.332248687744,
            37.57478690243061
          ],
          [
            -122.33093976974399,
            37.57411514458511
          ],
          [
            -122.330617904663,
            37.57386854841239
          ],
          [
            -122.329663038253,
            37.573281816305006
          ],
          [
            -122.328729629516,
            37.572559024020904
          ],
          [
            -122.32723832130401,
            37.57130900198489
          ],
          [
            -122.325768470764,
            37.569982425040806
          ],
          [
            -122.32404662187805,
            37.568337573619196
          ],
          [
            -122.3240100043899,
            37.56834275421063
          ],
          [
            -122.323783636093,
            37.568137083203496
          ],
          [
            -122.32239961624101,
            37.5668954910783
          ],
          [
            -122.32072591781602,
            37.56533071536229
          ],
          [
            -122.31864452362,
            37.5634087176005
          ],
          [
            -122.31734633445699,
            37.56221807464459
          ],
          [
            -122.31529712677002,
            37.5603300160901
          ],
          [
            -122.31376290321302,
            37.55888417313749
          ],
          [
            -122.311788797378,
            37.55703005111711
          ],
          [
            -122.311145067214,
            37.5561880263425
          ],
          [
            -122.31035113334602,
            37.5547335975031
          ],
          [
            -122.30953638001026,
            37.55301147265022
          ],
          [
            -122.309608,
            37.552994
          ],
          [
            -122.30936736676618,
            37.55264510163479
          ],
          [
            -122.30891198506357,
            37.55174411287923
          ],
          [
            -122.30848785100663,
            37.55100975097188
          ],
          [
            -122.30728335163062,
            37.54934143568158
          ],
          [
            -122.30605333295804,
            37.54787752006169
          ],
          [
            -122.30448514540855,
            37.54602346655623
          ],
          [
            -122.30366612140172,
            37.54504944278544
          ],
          [
            -122.30297753480288,
            37.544243371172115
          ],
          [
            -122.30235617147235,
            37.543522960344255
          ],
          [
            -122.30177797572182,
            37.54280721176324
          ],
          [
            -122.301666,
            37.54253599999999
          ],
          [
            -122.30141290244968,
            37.54235655031311
          ],
          [
            -122.30040879943247,
            37.541217427883026
          ],
          [
            -122.29965056466801,
            37.54031325009921
          ],
          [
            -122.2989602026233,
            37.53955649177625
          ],
          [
            -122.29808002833808,
            37.538622603561606
          ],
          [
            -122.29716103700778,
            37.53765102336995
          ],
          [
            -122.29642883148757,
            37.53683838666318
          ],
          [
            -122.29547284052069,
            37.5357913764553
          ],
          [
            -122.29449636657925,
            37.53487559210831
          ],
          [
            -122.29346009982794,
            37.534017121369494
          ],
          [
            -122.29188679666407,
            37.53281571483181
          ],
          [
            -122.28956753152106,
            37.53117055272374
          ],
          [
            -122.28703802095522,
            37.52948111062358
          ],
          [
            -122.28417404836493,
            37.5275428836078
          ],
          [
            -122.27994241135941,
            37.52431052422925
          ],
          [
            -122.27581599999999,
            37.520844
          ],
          [
            -122.27577507578219,
            37.52089895214795
          ],
          [
            -122.27164176253962,
            37.51743866486488
          ],
          [
            -122.26963804320556,
            37.51597733160855
          ],
          [
            -122.26770204185559,
            37.514543119888025
          ],
          [
            -122.26017789208461,
            37.508009359914034
          ],
          [
            -122.26020669969293,
            37.508006933541516
          ],
          [
            -122.25985050201402,
            37.5077173027208
          ],
          [
            -122.25858449935899,
            37.506593858353696
          ],
          [
            -122.257511615753,
            37.505615086222384
          ],
          [
            -122.256170511245,
            37.504457565227284
          ],
          [
            -122.25478649139399,
            37.5032659807505
          ],
          [
            -122.25212574005099,
            37.5009848945606
          ],
          [
            -122.24986195564202,
            37.4989931429134
          ],
          [
            -122.24794149398801,
            37.497299261034705
          ],
          [
            -122.24596738815299,
            37.495562779426585
          ],
          [
            -122.24357485771101,
            37.4935708831553
          ],
          [
            -122.24157929420399,
            37.492225897507495
          ],
          [
            -122.23935842514,
            37.4908212980343
          ],
          [
            -122.237159013748,
            37.489433698074
          ],
          [
            -122.23491668701098,
            37.488012019847595
          ],
          [
            -122.232599258422,
            37.4865307215363
          ],
          [
            -122.23198372793651,
            37.48615047537396
          ],
          [
            -122.23195650964603,
            37.48613687352389
          ],
          [
            -122.231193780899,
            37.48566236059439
          ],
          [
            -122.228844165802,
            37.4841639885689
          ],
          [
            -122.22629070281899,
            37.482580449108596
          ],
          [
            -122.22427368164,
            37.481337432257
          ],
          [
            -122.22213864326402,
            37.4799666842198
          ],
          [
            -122.220475673675,
            37.4789194498315
          ],
          [
            -122.21872687339702,
            37.4777700293405
          ],
          [
            -122.217729091644,
            37.477148483488
          ],
          [
            -122.21502542495702,
            37.47544559165569
          ],
          [
            -122.213523387908,
            37.474517499270895
          ],
          [
            -122.21123814582802,
            37.473061477903
          ],
          [
            -122.20930695533701,
            37.4718693925076
          ],
          [
            -122.206045389175,
            37.4698002277175
          ],
          [
            -122.20400691032401,
            37.46852293691051
          ],
          [
            -122.20201134681702,
            37.46724562427859
          ],
          [
            -122.19999432563701,
            37.46600235235759
          ],
          [
            -122.19794511795,
            37.4647249966589
          ],
          [
            -122.196958065032,
            37.4640692789232
          ],
          [
            -122.19386816024702,
            37.462119123361695
          ],
          [
            -122.192044258117,
            37.4609864769134
          ],
          [
            -122.18934059142998,
            37.4592321184726
          ],
          [
            -122.18634724617002,
            37.4573499697215
          ],
          [
            -122.18345046043298,
            37.4555273913982
          ],
          [
            -122.18234235896422,
            37.45483407404874
          ],
          [
            -122.18231484087113,
            37.454814576766225
          ],
          [
            -122.18063950538601,
            37.4537558708358
          ],
          [
            -122.17798948287901,
            37.4520694805488
          ],
          [
            -122.175843715667,
            37.4507067131466
          ],
          [
            -122.173247337341,
            37.449045806807
          ],
          [
            -122.170983552932,
            37.447623360268295
          ],
          [
            -122.16952443122801,
            37.4467460294569
          ],
          [
            -122.167990207672,
            37.4456472219869
          ],
          [
            -122.16546893119802,
            37.443960648894105
          ],
          [
            -122.16466477315745,
            37.44344712685951
          ],
          [
            -122.16465433345326,
            37.44342737493663
          ],
          [
            -122.163033485412,
            37.44237625771999
          ],
          [
            -122.161767482757,
            37.441592567963795
          ],
          [
            -122.160437107086,
            37.4409025734492
          ],
          [
            -122.159053087234,
            37.440144423992095
          ],
          [
            -122.15782999992301,
            37.4394118228374
          ],
          [
            -122.15613484382601,
            37.43833846400799
          ],
          [
            -122.15413928031899,
            37.437069154731496
          ],
          [
            -122.15169310569702,
            37.43551017495439
          ],
          [
            -122.14920401573102,
            37.433925604854984
          ],
          [
            -122.147948741912,
            37.433133307225106
          ],
          [
            -122.14544892311,
            37.43154016725021
          ],
          [
            -122.143056392669,
            37.43004923014269
          ],
          [
            -122.14240193367,
            37.42964028220369
          ],
          [
            -122.14195469089302,
            37.42935016363994
          ],
          [
            -122.14196645776535,
            37.42934642254904
          ],
          [
            -122.13998794555599,
            37.4281152274815
          ],
          [
            -122.137981653213,
            37.426854264918695
          ],
          [
            -122.135481834411,
            37.4253035926497
          ],
          [
            -122.13296055793701,
            37.42370176559431
          ],
          [
            -122.13164091110201,
            37.422849715964595
          ],
          [
            -122.12878704071001,
            37.4210689009304
          ],
          [
            -122.12733864784198,
            37.420157175406594
          ],
          [
            -122.12526798248199,
            37.418810868821694
          ],
          [
            -122.12329387664701,
            37.41756679185389
          ],
          [
            -122.120976448059,
            37.41608409779101
          ],
          [
            -122.11862683296201,
            37.41458433140669
          ],
          [
            -122.116609811782,
            37.413323140975095
          ],
          [
            -122.115150690078,
            37.4124113211531
          ],
          [
            -122.11130976676901,
            37.409965544013595
          ],
          [
            -122.108348608016,
            37.4081418115286
          ],
          [
            -122.10708907781141,
            37.40731427183464
          ],
          [
            -122.10709195170125,
            37.40731521383635
          ],
          [
            -122.107007503509,
            37.40726401791719
          ],
          [
            -122.10568785667398,
            37.4064799605587
          ],
          [
            -122.10440039634702,
            37.405764074934986
          ],
          [
            -122.101997137069,
            37.40477545973319
          ],
          [
            -122.097491025924,
            37.402977169328295
          ],
          [
            -122.091772556304,
            37.40071859180351
          ],
          [
            -122.089562416076,
            37.399832188061296
          ],
          [
            -122.08568930625901,
            37.39828947962311
          ],
          [
            -122.082191705703,
            37.39691720951849
          ],
          [
            -122.078039646148,
            37.395272156962896
          ],
          [
            -122.07609772682102,
            37.394505021665196
          ],
          [
            -122.07596010355377,
            37.394446358221714
          ],
          [
            -122.07596528516679,
            37.39444267831422
          ],
          [
            -122.07117319107002,
            37.3925445291225
          ],
          [
            -122.06848025321901,
            37.3914790225387
          ],
          [
            -122.065669298172,
            37.39033678266082
          ],
          [
            -122.062976360321,
            37.3892712446965
          ],
          [
            -122.05931782722402,
            37.38807782419649
          ],
          [
            -122.05249428749,
            37.3858187976663
          ],
          [
            -122.047290802001,
            37.3840626771921
          ],
          [
            -122.044329643249,
            37.38314197623759
          ],
          [
            -122.04098224639802,
            37.3820251849072
          ],
          [
            -122.037312984466,
            37.380823123744904
          ],
          [
            -122.033514976501,
            37.37954431412191
          ],
          [
            -122.03139955935082,
            37.37884764772371
          ],
          [
            -122.03142135707854,
            37.37881735851834
          ],
          [
            -122.029792070388,
            37.3782740083074
          ],
          [
            -122.025736570358,
            37.3770036809765
          ],
          [
            -122.02396631240799,
            37.3764324529491
          ],
          [
            -122.020522356033,
            37.3752644059771
          ],
          [
            -122.017174959182,
            37.3742327581228
          ],
          [
            -122.01390266418402,
            37.3735080383355
          ],
          [
            -122.010437250137,
            37.37285152142479
          ],
          [
            -122.00708985328602,
            37.37213531460559
          ],
          [
            -122.00270175933801,
            37.3712656257035
          ],
          [
            -122.00009465217498,
            37.37082225101041
          ],
          [
            -121.99731506264666,
            37.370595881327716
          ],
          [
            -121.99711102388915,
            37.37059719104945
          ],
          [
            -121.99714442428508,
            37.37056549623921
          ],
          [
            -121.99699401855399,
            37.370557930235094
          ],
          [
            -121.99510574340799,
            37.37049824476989
          ],
          [
            -121.990438699722,
            37.3705408772499
          ],
          [
            -121.986672878265,
            37.3705579302351
          ],
          [
            -121.98239207267702,
            37.370600562681204
          ],
          [
            -121.978830099105,
            37.370532350755816
          ],
          [
            -121.97677016258201,
            37.3703191880892
          ],
          [
            -121.97453856468202,
            37.36985875466219
          ],
          [
            -121.97276830673201,
            37.369287472222695
          ],
          [
            -121.969023942947,
            37.3676929743397
          ],
          [
            -121.965794563293,
            37.366260455365506
          ],
          [
            -121.96240425109798,
            37.36475969186671
          ],
          [
            -121.959507465362,
            37.363574408570514
          ],
          [
            -121.955913305282,
            37.3619542068716
          ],
          [
            -121.95361733436502,
            37.360939431149504
          ],
          [
            -121.949282884597,
            37.35904628346099
          ],
          [
            -121.94730877876198,
            37.35820202652741
          ],
          [
            -121.942180395126,
            37.3559762127255
          ],
          [
            -121.938232183456,
            37.35427909195249
          ],
          [
            -121.93623476725774,
            37.353298753523006
          ],
          [
            -121.93610090662858,
            37.353235791531596
          ],
          [
            -121.93613500000001,
            37.353189
          ]
        ]
      }
    }
  ]
}
